NORAD_CAT_ID,OBJECT_NAME,OBJECT_TYPE,EPOCH,MEAN_MOTION,ECCENTRICITY,INCLINATION,RA_OF_ASC_NODE,ARG_OF_PERICENTER,MEAN_ANOMALY,BSTAR,MEAN_MOTION_DOT,MEAN_MOTION_DDOT,TLE_LINE0,TLE_LINE1,TLE_LINE2,SEMIMAJOR_AXIS,PERIOD,APOGEE,PERIGEE,DECAYED
55754.0,STARLINK-5612,PAYLOAD,2023-06-07 08:36:55,14.98335122,0.0003321,70.0006,261.6921,270.6107,89.4671,-0.00013509,-1.705e-05,0.0,0 STARLINK-5612,1 55754U 23028P   23158.35898109 -.00001705  00000-0 -13509-3 0  9999,2 55754  70.0006 261.6921 0003321 270.6107  89.4671 14.98335122 15302,6950.177,96.107,574.35,569.734,0.0
55754.0,STARLINK-5612,PAYLOAD,2023-06-07 16:37:36,14.98332286,0.0003357,70.0006,260.8489,266.2832,93.7943,-2.4779e-05,-3.89e-06,0.0,0 STARLINK-5612,1 55754U 23028P   23158.69277920 -.00000389  00000-0 -24779-4 0  9997,2 55754  70.0006 260.8489 0003357 266.2832  93.7943 14.98332286 15350,6950.186,96.107,574.384,569.718,0.0
55754.0,STARLINK-5612,PAYLOAD,2023-06-08 08:38:56,14.983177,0.0003523,69.9998,259.1655,268.721,91.3545,0.00024022,2.774e-05,0.0,0 STARLINK-5612,1 55754U 23028P   23159.36038068  .00002774  00000-0  24022-3 0  9998,2 55754  69.9998 259.1655 0003523 268.7210  91.3545 14.98317700 15452,6950.231,96.108,574.544,569.647,0.0
55754.0,STARLINK-5612,PAYLOAD,2023-06-08 11:51:12,14.98352042,0.000336,69.9999,258.8285,271.8404,88.237,-0.00032228,-3.939e-05,0.0,0 STARLINK-5612,1 55754U 23028P   23159.49389215 -.00003939  00000-0 -32228-3 0  9998,2 55754  69.9999 258.8285 0003360 271.8404  88.2370 14.98352042 15478,6950.125,96.106,574.325,569.654,0.0
55754.0,STARLINK-5612,PAYLOAD,2023-06-08 13:27:20,14.98331197,0.000354,70.0,258.6603,268.8033,91.2721,3.5594e-05,3.32e-06,0.0,0 STARLINK-5612,1 55754U 23028P   23159.56065746  .00000332  00000-0  35594-4 0  9998,2 55754  70.0000 258.6603 0003540 268.8033  91.2721 14.98331197 15483,6950.189,96.107,574.515,569.594,0.0
55754.0,STARLINK-5612,PAYLOAD,2023-06-09 13:29:21,14.98333886,0.0003583,69.9999,256.1362,269.501,90.5739,1.4694e-05,8.2e-07,0.0,0 STARLINK-5612,1 55754U 23028P   23160.56205527  .00000082  00000-0  14694-4 0  9993,2 55754  69.9999 256.1362 0003583 269.5010  90.5739 14.98333886 15637,6950.181,96.107,574.536,569.556,0.0
55754.0,STARLINK-5612,PAYLOAD,2023-06-09 16:41:37,14.98338112,0.0003509,70.0,255.799,268.5412,91.5345,6.4808e-05,6.8e-06,0.0,0 STARLINK-5612,1 55754U 23028P   23160.69557056  .00000680  00000-0  64808-4 0  9990,2 55754  70.0000 255.7990 0003509 268.5412  91.5345 14.98338112 15651,6950.168,96.106,574.472,569.594,0.0
55754.0,STARLINK-5612,PAYLOAD,2023-06-10 05:30:41,14.98337656,0.0002746,70.0009,254.457,269.5706,90.5138,0.00019025,2.178e-05,0.0,0 STARLINK-5612,1 55754U 23028P   23161.22964594  .00002178  00000-0  19025-3 0  9993,2 55754  70.0009 254.4570 0002746 269.5706  90.5138 14.98337656 15739,6950.169,96.107,573.943,570.126,0.0
55754.0,STARLINK-5612,PAYLOAD,2023-06-10 07:06:51,14.98319529,0.0003445,70.0,254.2844,267.933,92.1435,-0.00016394,-2.048e-05,0.0,0 STARLINK-5612,1 55754U 23028P   23161.29642556 -.00002048  00000-0 -16394-3 0  9995,2 55754  70.0000 254.2844 0003445 267.9330  92.1435 14.98319529 15742,6950.225,96.108,574.485,569.696,0.0
55754.0,STARLINK-5612,PAYLOAD,2023-06-10 11:55:15,14.98320747,0.0003397,70.0001,253.7799,268.9272,91.1498,-0.00013337,-1.684e-05,0.0,0 STARLINK-5612,1 55754U 23028P   23161.49670502 -.00001684  00000-0 -13337-3 0  9998,2 55754  70.0001 253.7799 0003397 268.9272  91.1498 14.98320747 15773,6950.222,96.108,574.447,569.726,0.0
55754.0,STARLINK-5612,PAYLOAD,2023-06-10 15:07:31,14.98321951,0.0003303,70.0003,253.4435,266.6584,93.4197,-0.00012669,-1.604e-05,0.0,0 STARLINK-5612,1 55754U 23028P   23161.63022452 -.00001604  00000-0 -12669-3 0  9998,2 55754  70.0003 253.4435 0003303 266.6584  93.4197 14.98321951 15798,6950.218,96.108,574.378,569.787,0.0
55754.0,STARLINK-5612,PAYLOAD,2023-06-10 23:08:11,14.98325046,0.0003184,70.001,252.603,267.1854,92.8941,-7.0898e-05,-9.39e-06,0.0,0 STARLINK-5612,1 55754U 23028P   23161.96402250 -.00000939  00000-0 -70898-4 0  9991,2 55754  70.0010 252.6030 0003184 267.1854  92.8941 14.98325046 15846,6950.208,96.107,574.286,569.86,0.0
55754.0,STARLINK-5612,PAYLOAD,2023-06-11 05:32:43,14.98331742,0.0003341,70.0004,251.9285,268.762,91.3156,-2.2799e-05,-3.65e-06,0.0,0 STARLINK-5612,1 55754U 23028P   23162.23105675 -.00000365  00000-0 -22799-4 0  9993,2 55754  70.0004 251.9285 0003341 268.7620  91.3156 14.98331742 15882,6950.188,96.107,574.375,569.73,0.0
55754.0,STARLINK-5612,PAYLOAD,2023-06-11 11:57:15,14.98332649,0.0003456,70.0001,251.2556,268.7072,91.3691,2.2762e-06,-6.6e-07,0.0,0 STARLINK-5612,1 55754U 23028P   23162.49809491 -.00000066  00000-0  22762-5 0  9996,2 55754  70.0001 251.2556 0003456 268.7072  91.3691 14.98332649 15927,6950.185,96.107,574.452,569.648,0.0
55754.0,STARLINK-5612,PAYLOAD,2023-06-11 23:10:11,14.98338752,0.0003422,70.0002,250.0772,269.6554,90.4213,-4.6161e-05,-6.44e-06,0.0,0 STARLINK-5612,1 55754U 23028P   23162.96541094 -.00000644  00000-0 -46161-4 0  9991,2 55754  70.0002 250.0772 0003422 269.6554  90.4213 14.98338752 15991,6950.166,96.106,574.409,569.652,0.0
55754.0,STARLINK-5612,PAYLOAD,2023-06-12 05:34:44,14.9831938,0.0003261,70.0002,249.4039,270.8475,89.231,8.1746e-05,8.82e-06,0.0,0 STARLINK-5612,1 55754U 23028P   23163.23245923  .00000882  00000-0  81746-4 0  9994,2 55754  70.0002 249.4039 0003261 270.8475  89.2310 14.98319380 16032,6950.226,96.108,574.357,569.824,0.0
55754.0,STARLINK-5612,PAYLOAD,2023-06-12 11:59:16,14.98323384,0.0003289,70.0002,248.7306,270.3736,89.7047,8.4841e-05,9.19e-06,0.0,0 STARLINK-5612,1 55754U 23028P   23163.49949789  .00000919  00000-0  84841-4 0  9993,2 55754  70.0002 248.7306 0003289 270.3736  89.7047 14.98323384 16071,6950.213,96.107,574.364,569.792,0.0
55754.0,STARLINK-5612,PAYLOAD,2023-06-12 23:12:13,14.9832478,0.0003268,70.0002,247.5524,270.2996,89.7789,3.682e-05,3.46e-06,0.0,0 STARLINK-5612,1 55754U 23028P   23163.96681980  .00000346  00000-0  36820-4 0  9999,2 55754  70.0002 247.5524 0003268 270.2996  89.7789 14.98324780 16146,6950.209,96.107,574.345,569.803,0.0
55754.0,STARLINK-5612,PAYLOAD,2023-06-13 07:12:53,14.9832924,0.0003278,70.0003,246.7113,270.4126,89.6658,-2.3676e-05,-3.76e-06,0.0,0 STARLINK-5612,1 55754U 23028P   23164.30061897 -.00000376  00000-0 -23676-4 0  9997,2 55754  70.0003 246.7113 0003278 270.4126  89.6658 14.98329240 16195,6950.195,96.107,574.339,569.782,0.0
55754.0,STARLINK-5612,PAYLOAD,2023-06-13 23:14:13,14.98332096,0.0003265,70.0001,245.0269,269.8874,90.1911,-3.713e-05,-5.36e-06,0.0,0 STARLINK-5612,1 55754U 23028P   23164.96821689 -.00000536  00000-0 -37130-4 0  9990,2 55754  70.0001 245.0269 0003265 269.8874  90.1911 14.98332096 16298,6950.186,96.107,574.321,569.782,0.0
55754.0,STARLINK-5612,PAYLOAD,2023-06-14 05:38:46,14.98321407,0.0003449,69.9998,244.3537,268.0222,92.0542,0.00023764,2.743e-05,0.0,0 STARLINK-5612,1 55754U 23028P   23165.23525524  .00002743  00000-0  23764-3 0  9997,2 55754  69.9998 244.3537 0003449 268.0222  92.0542 14.98321407 16332,6950.219,96.108,574.482,569.687,0.0
55754.0,STARLINK-5612,PAYLOAD,2023-06-15 10:29:11,14.98330116,0.0003349,69.9996,241.3242,268.958,91.1196,2.0649e-05,1.53e-06,0.0,0 STARLINK-5612,1 55754U 23028P   23166.43693536  .00000153  00000-0  20649-4 0  9992,2 55754  69.9996 241.3242 0003349 268.9580  91.1196 14.98330116 16517,6950.193,96.107,574.385,569.73,0.0
55754.0,STARLINK-5612,PAYLOAD,2023-06-15 13:41:27,14.98332082,0.0003416,69.9996,240.9878,270.1044,89.9723,9.1065e-06,1.6e-07,0.0,0 STARLINK-5612,1 55754U 23028P   23166.57045441  .00000016  00000-0  91065-5 0  9992,2 55754  69.9996 240.9878 0003416 270.1044  89.9723 14.98332082 16539,6950.186,96.107,574.426,569.677,0.0
55754.0,STARLINK-5612,PAYLOAD,2023-06-15 15:17:35,14.98332846,0.0003417,69.9997,240.8195,270.2246,89.8521,1.6851e-05,1.08e-06,0.0,0 STARLINK-5612,1 55754U 23028P   23166.63721363  .00000108  00000-0  16851-4 0  9994,2 55754  69.9997 240.8195 0003417 270.2246  89.8521 14.98332846 16541,6950.184,96.107,574.424,569.674,0.0
55754.0,STARLINK-5612,PAYLOAD,2023-06-16 12:07:19,14.98338269,0.0003263,69.9999,238.6315,268.8692,91.2093,6.5127e-05,6.84e-06,0.0,0 STARLINK-5612,1 55754U 23028P   23167.50508667  .00000684  00000-0  65127-4 0  9990,2 55754  69.9999 238.6315 0003263 268.8692  91.2093 14.98338269 16679,6950.167,96.106,574.3,569.764,0.0
55754.0,STARLINK-5612,PAYLOAD,2023-06-16 13:43:27,14.98339417,0.0003255,70.0,238.4632,268.8735,91.2051,7.7044e-05,8.27e-06,0.0,0 STARLINK-5612,1 55754U 23028P   23167.57184525  .00000827  00000-0  77044-4 0  9990,2 55754  70.0000 238.4632 0003255 268.8735  91.2051 14.98339417 16685,6950.164,96.106,574.291,569.766,0.0
55754.0,STARLINK-5612,PAYLOAD,2023-06-16 21:44:08,14.98331034,0.0003158,70.0001,237.6213,270.7128,89.3669,1.5357e-05,9e-07,0.0,0 STARLINK-5612,1 55754U 23028P   23167.90565083  .00000090  00000-0  15357-4 0  9990,2 55754  70.0001 237.6213 0003158 270.7128  89.3669 14.98331034 16738,6950.19,96.107,574.25,569.86,0.0
55754.0,STARLINK-5612,PAYLOAD,2023-06-17 10:33:13,14.98323187,0.0003099,70.0003,236.2754,268.2809,91.7995,-6.9102e-05,-9.17e-06,0.0,0 STARLINK-5612,1 55754U 23028P   23168.43973880 -.00000917  00000-0 -69102-4 0  9994,2 55754  70.0003 236.2754 0003099 268.2809  91.7995 14.98323187 16815,6950.214,96.107,574.233,569.925,0.0
55754.0,STARLINK-5612,PAYLOAD,2023-06-17 21:46:09,14.98324769,0.0003146,70.0003,235.0981,268.0356,92.0443,-4.81e-05,-6.67e-06,0.0,0 STARLINK-5612,1 55754U 23028P   23168.90705914 -.00000667  00000-0 -48100-4 0  9994,2 55754  70.0003 235.0981 0003146 268.0356  92.0443 14.98324769 16888,6950.209,96.107,574.261,569.888,0.0
55754.0,STARLINK-5612,PAYLOAD,2023-06-18 10:35:13,14.98330928,0.0003282,70.0004,233.7516,269.1617,90.9166,-8.7614e-06,-1.98e-06,0.0,0 STARLINK-5612,1 55754U 23028P   23169.44113414 -.00000198  00000-0 -87614-5 0  9995,2 55754  70.0004 233.7516 0003282 269.1617  90.9166 14.98330928 16963,6950.19,96.107,574.336,569.774,0.0
